STARLINK-1718
1 46674U 20073E   26092.83335647  .00149966  00000+0  17336-2 0  9993
2 46674  53.0463 110.7079 0007591  29.7859  75.5442 15.60872154  5918
